NORAD_CAT_ID,OBJECT_NAME,OBJECT_TYPE,EPOCH,MEAN_MOTION,ECCENTRICITY,INCLINATION,RA_OF_ASC_NODE,ARG_OF_PERICENTER,MEAN_ANOMALY,BSTAR,MEAN_MOTION_DOT,MEAN_MOTION_DDOT,TLE_LINE0,TLE_LINE1,TLE_LINE2,SEMIMAJOR_AXIS,PERIOD,APOGEE,PERIGEE,DECAYED
49419.0,STARLINK-3120,PAYLOAD,2022-06-24 09:57:58,15.08834769,0.0002728,53.2176,188.7015,36.4706,323.6472,-1.9654e-05,-6.01e-06,0.0,0 STARLINK-3120,1 49419U 21104M   22175.41526280 -.00000601  00000-0 -19654-4 0  9998,2 49419  53.2176 188.7015 0002728  36.4706 323.6472 15.08834769 35251,6917.896,95.438,541.649,537.874,0.0
49419.0,STARLINK-3120,PAYLOAD,2022-06-24 17:54:54,15.08828848,0.000274,53.2177,187.2148,37.08,323.0381,7.0244e-05,8.29e-06,0.0,0 STARLINK-3120,1 49419U 21104M   22175.74646542  .00000829  00000-0  70244-4 0  9990,2 49419  53.2177 187.2148 0002740  37.0800 323.0381 15.08828848 34229,6917.9140000000025,95.438,541.675,537.884,0.0
49419.0,STARLINK-3120,PAYLOAD,2022-06-25 09:48:46,15.0883324,0.0002774,53.2178,184.2413,38.6548,321.4642,7.0361e-05,8.31e-06,0.0,0 STARLINK-3120,1 49419U 21104M   22176.40886669  .00000831  00000-0  70361-4 0  9993,2 49419  53.2178 184.2413 0002774  38.6548 321.4642 15.08833240 34320,6917.901,95.438,541.685,537.847,0.0
49419.0,STARLINK-3120,PAYLOAD,2022-06-25 17:45:41,15.08834432,0.0002801,53.2179,182.7545,38.8976,321.2218,6.1585e-05,6.92e-06,0.0,0 STARLINK-3120,1 49419U 21104M   22176.74006752  .00000692  00000-0  61585-4 0  9990,2 49419  53.2179 182.7545 0002801  38.8976 321.2218 15.08834432 35454,6917.897,95.438,541.7,537.825,0.0
49419.0,STARLINK-3120,PAYLOAD,2022-06-26 09:39:33,15.08839494,0.0002853999999999,53.2177,179.78099999999995,40.1392,319.9811,8.1902e-05,1.015e-05,0.0,0 STARLINK-3120,1 49419U 21104M   22177.40246563  .00001015  00000-0  81902-4 0  9995,2 49419  53.2177 179.7810 0002854  40.1392 319.9811 15.08839494 34476,6917.882,95.438,541.721,537.773,0.0
49419.0,STARLINK-3120,PAYLOAD,2022-06-26 17:36:28,15.0884006,0.0002877,53.2179,178.2942,40.8207,319.3,7.46e-05,8.99e-06,0.0,0 STARLINK-3120,1 49419U 21104M   22177.73366533  .00000899  00000-0  74600-4 0  9997,2 49419  53.2179 178.2942 0002877  40.8207 319.3000 15.08840060 34526,6917.88,95.438,541.735,537.755,0.0
49419.0,STARLINK-3120,PAYLOAD,2022-06-27 04:44:10,15.08842996,0.0002901999999999,53.2179,176.2127,41.7084,318.4129,7.859100000000001e-05,9.63e-06,0.0,0 STARLINK-3120,1 49419U 21104M   22178.19734307  .00000963  00000-0  78591-4 0  9991,2 49419  53.2179 176.2127 0002902  41.7084 318.4129 15.08842996 35670,6917.871,95.437,541.744,537.729,0.0
49419.0,STARLINK-3120,PAYLOAD,2022-06-27 09:30:19,15.08844694,0.0002945,53.2178,175.3209,41.8433,318.2784,8.420000000000001e-05,1.052e-05,0.0,0 STARLINK-3120,1 49419U 21104M   22178.39606151  .00001052  00000-0  84200-4 0  9992,2 49419  53.2178 175.3209 0002945  41.8433 318.2784 15.08844694 34622,6917.866,95.437,541.768,537.694,0.0
49419.0,STARLINK-3120,PAYLOAD,2022-06-27 17:27:15,15.08845577,0.0002962,53.2179,173.8341,42.4551,317.6670000000001,7.9167e-05,9.72e-06,0.0,0 STARLINK-3120,1 49419U 21104M   22178.72725980  .00000972  00000-0  79167-4 0  9997,2 49419  53.2179 173.8341 0002962  42.4551 317.6670 15.08845577 34673,6917.863,95.437,541.7769999999998,537.679,0.0
49419.0,STARLINK-3120,PAYLOAD,2022-06-28 09:21:06,15.08849192,0.0002999,53.2177,170.8604,43.8743,316.2487,7.7057e-05,9.38e-06,0.0,0 STARLINK-3120,1 49419U 21104M   22179.38965422  .00000938  00000-0  77057-4 0  9995,2 49419  53.2177 170.8604 0002999  43.8743 316.2487 15.08849192 35857,6917.852,95.437,541.7919999999998,537.643,0.0
49419.0,STARLINK-3120,PAYLOAD,2022-06-29 10:47:17,15.08837212,0.000308,53.2177,166.1028,46.2909,313.8338,-5.4419e-05,-1.155e-05,0.0,0 STARLINK-3120,1 49419U 21104M   22180.44950491 -.00001155  00000-0 -54419-4 0  9995,2 49419  53.2177 166.1028 0003080  46.2909 313.8338 15.08837212 34934,6917.889,95.438,541.885,537.623,0.0
49419.0,STARLINK-3120,PAYLOAD,2022-06-29 15:33:26,15.08837448,0.0003092,53.2177,165.2108,46.5175,313.6074,-4.9038e-05,-1.069e-05,0.0,0 STARLINK-3120,1 49419U 21104M   22180.64822469 -.00001069  00000-0 -49038-4 0  9995,2 49419  53.2177 165.2108 0003092  46.5175 313.6074 15.08837448 34963,6917.888000000001,95.438,541.8919999999998,537.614,0.0
49419.0,STARLINK-3120,PAYLOAD,2022-06-30 10:38:04,15.08840009,0.0003121,53.2178,161.6426,47.0362,313.0892,-4.8254e-05,-1.057e-05,0.0,0 STARLINK-3120,1 49419U 21104M   22181.44310296 -.00001057  00000-0 -48254-4 0  9990,2 49419  53.2178 161.6426 0003121  47.0362 313.0892 15.08840009 35087,6917.88,95.438,541.904,537.586,0.0
49419.0,STARLINK-3120,PAYLOAD,2022-06-30 15:24:13,15.088402800000004,0.0003133,53.2178,160.7505,47.2762,312.8493,-3.7544e-05,-8.86e-06,0.0,0 STARLINK-3120,1 49419U 21104M   22181.64182243 -.00000886  00000-0 -37544-4 0  9990,2 49419  53.2178 160.7505 0003133  47.2762 312.8493 15.08840280 35113,6917.88,95.438,541.9119999999998,537.577,0.0
49419.0,STARLINK-3120,PAYLOAD,2022-07-01 10:28:51,15.08837505,0.0003113,53.2179,157.1821,48.3898,311.7361,6.491300000000001e-05,7.45e-06,0.0,0 STARLINK-3120,1 49419U 21104M   22182.43670259  .00000745  00000-0  64913-4 0  9999,2 49419  53.2179 157.1821 0003113  48.3898 311.7361 15.08837505 35236,6917.888000000001,95.438,541.9069999999998,537.599,0.0
49419.0,STARLINK-3120,PAYLOAD,2022-07-01 15:15:00,15.08838188,0.0003129,53.2179,156.2901,48.6657,311.4604,6.1318e-05,6.87e-06,0.0,0 STARLINK-3120,1 49419U 21104M   22182.63542253  .00000687  00000-0  61318-4 0  9994,2 49419  53.2179 156.2901 0003129  48.6657 311.4604 15.08838188 36346,6917.886,95.438,541.9159999999998,537.586,0.0
49419.0,STARLINK-3120,PAYLOAD,2022-07-02 10:19:37,15.08845039,0.0003161,53.2179,152.7218,50.51300000000001,309.6141,8.280200000000001e-05,1.03e-05,0.0,0 STARLINK-3120,1 49419U 21104M   22183.43029710  .00001030  00000-0  82802-4 0  9995,2 49419  53.2179 152.7218 0003161  50.5130 309.6141 15.08845039 35383,6917.865,95.437,541.9169999999998,537.543,0.0
49419.0,STARLINK-3120,PAYLOAD,2022-07-02 15:05:46,15.08847137,0.0003178,53.218,151.8297,50.833,309.2944,8.751e-05,1.105e-05,0.0,0 STARLINK-3120,1 49419U 21104M   22183.62901491  .00001105  00000-0  87510-4 0  9995,2 49419  53.2180 151.8297 0003178  50.8330 309.2944 15.08847137 35417,6917.859,95.437,541.922,537.525,0.0
49419.0,STARLINK-3120,PAYLOAD,2022-07-02 21:27:19,15.08848197,0.0003181,53.218,150.6402,51.5377,308.59,8.4105e-05,1.05e-05,0.0,0 STARLINK-3120,1 49419U 21104M   22183.89397307  .00001050  00000-0  84105-4 0  9995,2 49419  53.2180 150.6402 0003181  51.5377 308.5900 15.08848197 36530,6917.855,95.437,541.9209999999998,537.52,0.0
49419.0,STARLINK-3120,PAYLOAD,2022-07-03 03:48:52,15.08840312,0.000318,53.2181,149.4506,51.9744,308.1534,-3.6449e-06,-3.47e-06,0.0,0 STARLINK-3120,1 49419U 21104M   22184.15894056 -.00000347  00000-0 -36449-5 0  9997,2 49419  53.2181 149.4506 0003180  51.9744 308.1534 15.08840312 36577,6917.879,95.438,541.944,537.545,0.0
49419.0,STARLINK-3120,PAYLOAD,2022-07-03 10:10:25,15.08839665,0.000319,53.2181,148.2613,52.3153,307.8128,-9.7204e-06,-4.43e-06,0.0,0 STARLINK-3120,1 49419U 21104M   22184.42390092 -.00000443  00000-0 -97204-5 0  9991,2 49419  53.2181 148.2613 0003190  52.3153 307.8128 15.08839665 35532,6917.880999999999,95.438,541.953,537.54,0.0
49419.0,STARLINK-3120,PAYLOAD,2022-07-03 14:56:34,15.08840959,0.0003196,53.2182,147.3693,52.7046,307.4237,3.5756e-07,-2.83e-06,0.0,0 STARLINK-3120,1 49419U 21104M   22184.62261954 -.00000283  00000-0  35756-6 0  9993,2 49419  53.2182 147.3693 0003196  52.7046 307.4237 15.08840959 35560,6917.877,95.437,541.953,537.5319999999998,0.0
49419.0,STARLINK-3120,PAYLOAD,2022-07-04 08:25:49,15.08832873,0.0003076,53.2177,144.0988,52.3397,307.7873,-9.9376e-05,-1.87e-05,0.0,0 STARLINK-3120,1 49419U 21104M   22185.35126662 -.00001870  00000-0 -99376-4 0  9990,2 49419  53.2177 144.0988 0003076  52.3397 307.7873 15.08832873 36754,6917.901999999999,95.438,541.895,537.639,0.0
49419.0,STARLINK-3120,PAYLOAD,2022-07-04 14:47:22,15.08832016,0.0002957,53.2177,142.9097,54.4275,305.6992,-8.589700000000001e-05,-1.655e-05,0.0,0 STARLINK-3120,1 49419U 21104M   22185.61622740 -.00001655  00000-0 -85897-4 0  9991,2 49419  53.2177 142.9097 0002957  54.4275 305.6992 15.08832016 35710,6917.905,95.438,541.815,537.724,0.0
49419.0,STARLINK-3120,PAYLOAD,2022-07-05 08:16:36,15.08832744,0.0003218,53.2182,139.6383,54.7834,305.3459,1.3217e-05,-7.8e-07,0.0,0 STARLINK-3120,1 49419U 21104M   22186.34486743 -.00000078  00000-0  13217-4 0  9997,2 49419  53.2182 139.6383 0003218  54.7834 305.3459 15.08832744 35827,6917.903,95.438,541.994,537.5409999999998,0.0
49419.0,STARLINK-3120,PAYLOAD,2022-07-05 20:59:41,15.08836515,0.0003216,53.2182,137.2595,55.6362,304.4934,2.0125e-05,3.2e-07,0.0,0 STARLINK-3120,1 49419U 21104M   22186.87478668  .00000032  00000-0  20125-4 0  9997,2 49419  53.2182 137.2595 0003216  55.6362 304.4934 15.08836515 35907,6917.891,95.438,541.981,537.531,0.0
49419.0,STARLINK-3120,PAYLOAD,2022-07-06 06:32:01,15.08770715,0.0003667,53.2181,135.4759,57.3998,302.7348,0.0009591,0.00014981,0.0,0 STARLINK-3120,1 49419U 21104M   22187.27223862  .00014981  00000-0  95910-3 0  9997,2 49419  53.2181 135.4759 0003667  57.3998 302.7348 15.08770715 37048,6918.092,95.442,542.494,537.42,0.0
49419.0,STARLINK-3120,PAYLOAD,2022-07-07 06:22:48,15.08830568,0.0003253999999999,53.2186,131.0151,57.8527,302.2781,1.9678e-05,2.4e-07,0.0,0 STARLINK-3120,1 49419U 21104M   22188.26583598  .00000024  00000-0  19678-4 0  9993,2 49419  53.2186 131.0151 0003254  57.8527 302.2781 15.08830568 36112,6917.909000000002,95.438,542.025,537.523,0.0
49419.0,STARLINK-3120,PAYLOAD,2022-07-07 19:05:53,15.08838143,0.0003264,53.2187,128.6361,58.6255,301.5057,4.5782e-05,4.4e-06,0.0,0 STARLINK-3120,1 49419U 21104M   22188.79575253  .00000440  00000-0  45782-4 0  9997,2 49419  53.2187 128.6361 0003264  58.6255 301.5057 15.08838143 37279,6917.886,95.438,542.009,537.493,0.0
